ONEWEB-0055             
1 45443U 20020V   21063.66675926 -.00019122  00000-0 -54101-1 0  9992
2 45443  87.8848  44.8146 0002009  85.0345   3.7269 13.11417075  1770
ONEWEB-0093             
1 45444U 20020W   21063.66675926 -.00029500  00000-0 -83518-1 0  9998
2 45444  87.8892  44.8719 0001941  92.9328 179.6164 13.11432784  1702
ONEWEB-0029             
1 45445U 20020X   21063.66675926 -.00019139  00000-0 -54148-1 0  9993
2 45445  87.8876  44.8537 0001904  86.6378   9.5172 13.11418307  1713
ONEWEB-0068             
1 45446U 20020Y   21063.66675926 -.00019489  00000-0 -55133-1 0  9997
2 45446  87.8892  44.8718 0002616  88.6465 213.2756 13.11427318  1717
ONEWEB-0046             
1 45447U 20020Z   21063.66675926 -.00019564  00000-0 -55347-1 0  9999
2 45447  87.8892  44.8751 0002025  92.7365 223.8847 13.11426395  1705
ONEWEB-0063             
1 45448U 20020AA  21063.66675926 -.00019131  00000-0 -54128-1 0  9996
2 45448  87.8869  44.8928 0002276 104.3848   6.4932 13.11416383  1706
ONEWEB-0019             
1 45449U 20020AB  21063.58334491 -.00044582  00000-0 -12639+0 0  9994
2 45449  87.8897  44.8620 0001904  84.5575 176.4491 13.11440965  1712
ONEWEB-0094             
1 45450U 20020AC  21063.58334491 -.01165712  00000-0 -70965+0 0  9992
2 45450  87.7733  30.6402 0028401 124.9084 293.2848 14.09241914  1779
ONEWEB-0087             
1 45451U 20020AD  21063.58334491 -.00043706  00000-0 -12391+0 0  9999
2 45451  87.8881  44.8899 0001905  85.8493 321.9946 13.11433253  1725
ONEWEB-0082             
1 45452U 20020AE  21063.58334491 -.00043605  00000-0 -12362+0 0  9996
2 45452  87.8863  44.8591 0002211  86.3221 314.1888 13.11433992  1720
ONEWEB-0050             
1 45453U 20020AF  21063.58334491 -.00045819  00000-0 -42046-2 0  9991
2 45453  87.5452  28.4834 0028566 116.0194 181.8330 14.94891693  1753
ONEWEB-0034             
1 45454U 20020AG  21063.58334491 -.00043376  00000-0 -12296+0 0  9999
2 45454  87.8882  44.8831 0002020  95.3694 246.3977 13.11438330  1739
ONEWEB-0060             
1 45455U 20020AH  21063.58334491 -.00043683  00000-0 -12383+0 0  9998
2 45455  87.8890  44.8747 0001987  90.3543 222.0660 13.11439839  1739
ONEWEB-0086             
1 45456U 20020AJ  21063.58334491 -.00044857  00000-0 -12716+0 0  9993
2 45456  87.8892  44.8731 0002056  91.4131 154.8387 13.11447168  1707
ONEWEB-0088             
1 45457U 20020AK  21063.58334491 -.00043432  00000-0 -12312+0 0  9994
2 45457  87.8880  44.9087 0002029  94.7500 239.6687 13.11438199  1738
ONEWEB-0102             
1 47258U 20100A   21063.58334491 -.00023278  00000-0 -16782-1 0  9997
2 47258  87.6524  15.4946 0010451  28.4753 276.6819 13.96955452  1738
ONEWEB-0109             
1 47259U 20100B   21063.58334491  .00000016  00000-0  00000-0 0  9996
2 47259  87.5438  15.3186 0010824  30.2977  46.2082 13.82861930  1735
ONEWEB-0110             
1 47260U 20100C   21063.58334491 -.00023314  00000-0 -16509-1 0  9998
2 47260  87.6340  15.4650 0010329  29.3558 273.8117 13.97965490  1752
ONEWEB-0111             
1 47261U 20100D   21063.58334491 -.00968245  00000-0 -91215+0 0  9995
2 47261  87.5952  15.1782 0011580  30.2457  54.2456 13.84521804  1742
ONEWEB-0114             
1 47262U 20100E   21063.58334491 -.00898649  00000-0 -90884+0 0  9997
2 47262  87.5648  15.1520 0010750  16.9976 190.1360 13.80625418  1724
ONEWEB-0117             
1 47263U 20100F   21063.58334491  .00000016  00000-0  00000-0 0  9991
2 47263  87.5311  15.2167 0011693  34.5860 358.3742 13.76751854  1726
ONEWEB-0118             
1 47264U 20100G   21063.58334491 -.00024776  00000-0 -17711-1 0  9991
2 47264  87.6875  15.5147 0012836  18.8920 149.5669 13.97428167  1747
ONEWEB-0119             
1 47265U 20100H   21063.58334491 -.00144714  00000-0 -10506+0 0  9990
2 47265  87.6179  15.4640 0014645  20.5084  29.4648 13.97404793  1756
ONEWEB-0120             
1 47266U 20100J   21063.58334491 -.00024042  00000-0 -17094-1 0  9993
2 47266  87.6319  15.4914 0011346  32.3160 114.2955 13.97736096  1734
ONEWEB-0121             
1 47267U 20100K   21063.58334491 -.00995072  00000-0 -89337+0 0  9991
2 47267  87.5945  15.2276 0013976  31.5187 243.4900 13.87415473  1747
ONEWEB-0122             
1 47268U 20100L   21063.58334491 -.00772458  00000-0 -73203+0 0  9998
2 47268  87.5893  15.1731 0009949  26.3946 249.4962 13.83985345  1846
ONEWEB-0123             
1 47269U 20100M   21063.58334491 -.01027618  00000-0 -79087+0 0  9997
2 47269  87.6089  15.4409 0009704  23.7676 215.5238 13.96430127  1757
ONEWEB-0124             
1 47270U 20100N   21063.58334491  .00000016  00000-0  00000-0 0  9999
2 47270  87.5152  15.3439 0010480  17.4771 259.3881 13.81068285  1712
ONEWEB-0125             
1 47271U 20100P   21063.58334491 -.00982991  00000-0 -85855+0 0  9993
2 47271  87.5882  15.3466 0010319  19.2147 167.6217 13.88999971  1739
ONEWEB-0126             
1 47272U 20100Q   21063.58334491 -.00021970  00000-0 -15837-1 0  9990
2 47272  87.6369  15.5103 0009777  13.6409 324.9383 13.96957148  1737
ONEWEB-0127             
1 47273U 20100R   21063.58334491 -.01115735  00000-0 -83303+0 0  9996
2 47273  87.6651  15.5062 0012576  23.0768 106.9515 13.98430368  1793
ONEWEB-0128             
1 47274U 20100S   21063.58334491 -.00022429  00000-0 -15945-1 0  9992
2 47274  87.6879  15.5217 0011956 356.9132 329.8298 13.97730743  1728
ONEWEB-0129             
1 47275U 20100T   21063.58334491 -.00879995  00000-0 -66301+0 0  9991
2 47275  87.5907  15.4225 0012828  29.4768 179.5723 13.97647999  1749
ONEWEB-0130             
1 47276U 20100U   21063.58334491 -.00283926  00000-0 -22782+0 0  9990
2 47276  87.6090  15.4805 0009547  16.7226  79.1513 13.92769917  1742
ONEWEB-0131             
1 47277U 20100V   21063.58334491 -.01093015  00000-0 -83116+0 0  9998
2 47277  87.6376  15.4496 0008644  22.1410 189.6877 13.97334573  1740
ONEWEB-0132             
1 47278U 20100W   21063.58334491 -.00981640  00000-0 -89596+0 0  9996
2 47278  87.5945  15.2926 0010466  30.9043 329.8100 13.86427712  1734
ONEWEB-0133             
1 47279U 20100X   21063.58334491 -.00022194  00000-0 -16141-1 0  9995
2 47279  87.6657  15.5437 0013308  16.9755  79.7854 13.96438422  1736
ONEWEB-0134             
1 47280U 20100Y   21063.58334491 -.01070536  00000-0 -80717+0 0  9999
2 47280  87.6569  15.4955 0014254  27.6347  79.9103 13.97712714  1730
ONEWEB-0135             
1 47281U 20100Z   21063.58334491 -.00021251  00000-0 -15231-1 0  9990
2 47281  87.6813  15.5058 0012982   3.2648  57.7085 13.97259637  1742
ONEWEB-0136             
1 47282U 20100AA  21063.58334491 -.01189291  00000-0 -96607+0 0  9995
2 47282  87.5998  15.4659 0009391  22.6075 222.3732 13.93287080  1783
ONEWEB-0137             
1 47283U 20100AB  21063.58334491 -.00936153  00000-0 -90648+0 0  9991
2 47283  87.5910  15.2994 0012312  15.5364  37.9970 13.82793750  1730
ONEWEB-0138             
1 47284U 20100AC  21063.58334491 -.00706773  00000-0 -54779+0 0  9990
2 47284  87.6021  15.2333 0013159  27.0406  12.3462 13.95362850  1759
ONEWEB-0139             
1 47285U 20100AD  21063.58334491 -.00022286  00000-0 -15911-1 0  9998
2 47285  87.6440  15.5381 0011328   3.8813  94.5885 13.97494339  1730
ONEWEB-0140             
1 47286U 20100AE  21063.58334491 -.01144698  00000-0 -80378+0 0  9999
2 47286  87.7171  15.4163 0011450  30.8999 296.1235 14.01428334  1761
ONEWEB-0141             
1 47287U 20100AF  21063.58334491 -.00023162  00000-0 -16475-1 0  9990
2 47287  87.6802  15.4268 0012565  12.7160 292.9786 13.97699574  1759
ONEWEB-0142             
1 47288U 20100AG  21063.58334491 -.01181237  00000-0 -89241+0 0  9999
2 47288  87.6216  15.5013 0008602  21.3221 156.7323 13.97411233  1746
ONEWEB-0143             
1 47289U 20100AH  21063.58334491 -.00989185  00000-0 -83768+0 0  9995
2 47289  87.5806  15.3360 0014350  30.9124 183.4133 13.90787894  1725
ONEWEB-0144             
1 47290U 20100AJ  21063.58334491 -.00984588  00000-0 -89758+0 0  9994
2 47290  87.5941  15.3146 0010709  36.2951 235.9124 13.86505979  1720
ONEWEB-0145             
1 47291U 20100AK  21063.58334491 -.01166231  00000-0 -76135+0 0  9998
2 47291  87.7199  15.4726 0012636   0.5128 184.4198 14.05550344  1732
ONEWEB-0146             
1 47292U 20100AL  21063.58334491 -.00022728  00000-0 -16261-1 0  9996
2 47292  87.6523  15.4350 0013675  20.9877 295.0746 13.97363392  1752
ONEWEB-0147             
1 47293U 20100AM  21063.58334491  .00000016  00000-0  00000-0 0  9994
2 47293  87.5353  15.3483 0011779  16.7372  39.5916 13.81777521  1739
